IRIDIUM 152             
1 43479U 18047D   26066.10025775  .00000010  00000+0 -33235-5 0  9996
2 43479  86.3983 131.0255 0002171  93.1586 266.9858 14.34217579407857
IRIDIUM 147             
1 43480U 18047E   26066.17636449  .00000256  00000+0  84343-4 0  9997
2 43480  86.3983 130.9976 0002181  98.9615 261.1828 14.34215302407861
IRIDIUM 110             
1 43481U 18047F   26066.18271225 -.00000021  00000+0 -14619-4 0  9997
2 43481  86.3987 131.0832 0002411  88.1617 271.9855 14.34217342407852
IRIDIUM 162             
1 43482U 18047G   26066.17702153  .00000370  00000+0  10408-3 0  9992
2 43482  86.4504 131.0253 0002102  92.4269 267.7173 14.43284540410410
IRIDIUM 160             
1 43569U 18061A   26066.12854642  .00000011  00000+0 -29696-5 0  9994
2 43569  86.3916  99.4876 0002264  91.7681 268.3774 14.34217781398747
IRIDIUM 166             
1 43570U 18061B   26066.15391642  .00000018  00000+0 -45911-6 0  9991
2 43570  86.3918  99.4291 0002129  96.9389 263.2049 14.34217808398776
IRIDIUM 158             
1 43571U 18061C   26066.12220292  .00000040  00000+0  73678-5 0  9995
2 43571  86.3919  99.4527 0002121  89.9962 270.1477 14.34217847398732
IRIDIUM 165             
1 43572U 18061D   26066.14757313  .00000066  00000+0  16487-4 0  9999
2 43572  86.3918  99.4858 0002231  96.5836 263.5613 14.34218380398769
IRIDIUM 155             
1 43573U 18061E   26066.10951859  .00000008  00000+0 -42657-5 0  9993
2 43573  86.3916  99.3761 0001965  93.7130 266.4290 14.34217650398727
IRIDIUM 154             
1 43574U 18061F   26066.16026373  .00000181  00000+0  57666-4 0  9990
2 43574  86.3918  99.4835 0002211  97.9801 262.1646 14.34219045398783
IRIDIUM 163             
1 43575U 18061G   26066.14123082  .00000111  00000+0  32608-4 0  9996
2 43575  86.3917  99.4102 0002213  91.5036 268.6414 14.34218615398755
IRIDIUM 156             
1 43576U 18061H   26066.18562909  .00000024  00000+0  14315-5 0  9995
2 43576  86.3915  99.3986 0002028  93.8348 266.3080 14.34217983398759
IRIDIUM 164             
1 43577U 18061J   26066.16660237  .00000159  00000+0  49609-4 0  9999
2 43577  86.3918  99.4457 0002364  98.1497 261.9966 14.34218206398790
IRIDIUM 159             
1 43578U 18061K   26066.13488965  .00000013  00000+0 -23901-5 0  9991
2 43578  86.3916  99.3973 0002276  90.9031 269.2425 14.34217676398754
IRIDIUM 180             
1 43922U 19002A   26066.13438644 -.00000035  00000+0 -19575-4 0  9995
2 43922  86.3964  36.2334 0002177  85.4608 274.6837 14.34217108374368
IRIDIUM 176             
1 43923U 19002B   26065.93556156  .00001267  00000+0  19703-3 0  9990
2 43923  86.6092  36.2737 0002433  89.2705 270.8791 14.72251895384200
IRIDIUM 168             
1 43924U 19002C   26065.98850439  .00000058  00000+0  13708-4 0  9994
2 43924  86.3968  36.3685 0002191  86.3428 273.8018 14.34213875374325
