[{"OBJECT_NAME":"IRIDIUM 152","OBJECT_ID":"2018-047D","EPOCH":"2026-03-07T02:24:22.269600","MEAN_MOTION":14.34217579,"ECCENTRICITY":0.0002171,"INCLINATION":86.3983,"RA_OF_ASC_NODE":131.0255,"ARG_OF_PERICENTER":93.1586,"MEAN_ANOMALY":266.9858,"EPHEMERIS_TYPE":0,"CLASSIFICATION_TYPE":"U","NORAD_CAT_ID":43479,"ELEMENT_SET_NO":999,"REV_AT_EPOCH":40785,"BSTAR":-3.3235e-6,"MEAN_MOTION_DOT":1.0e-7,"MEAN_MOTION_DDOT":0},{"OBJECT_NAME":"IRIDIUM 147","OBJECT_ID":"2018-047E","EPOCH":"2026-03-07T04:13:57.891936","MEAN_MOTION":14.34215302,"ECCENTRICITY":0.0002181,"INCLINATION":86.3983,"RA_OF_ASC_NODE":130.9976,"ARG_OF_PERICENTER":98.9615,"MEAN_ANOMALY":261.1828,"EPHEMERIS_TYPE":0,"CLASSIFICATION_TYPE":"U","NORAD_CAT_ID":43480,"ELEMENT_SET_NO":999,"REV_AT_EPOCH":40786,"BSTAR":8.4343e-5,"MEAN_MOTION_DOT":2.56e-6,"MEAN_MOTION_DDOT":0},{"OBJECT_NAME":"IRIDIUM 110","OBJECT_ID":"2018-047F","EPOCH":"2026-03-07T04:23:06.338400","MEAN_MOTION":14.34217342,"ECCENTRICITY":0.0002411,"INCLINATION":86.3987,"RA_OF_ASC_NODE":131.0832,"ARG_OF_PERICENTER":88.1617,"MEAN_ANOMALY":271.9855,"EPHEMERIS_TYPE":0,"CLASSIFICATION_TYPE":"U","NORAD_CAT_ID":43481,"ELEMENT_SET_NO":999,"REV_AT_EPOCH":40785,"BSTAR":-1.4619e-5,"MEAN_MOTION_DOT":-2.1e-7,"MEAN_MOTION_DDOT":0},{"OBJECT_NAME":"IRIDIUM 162","OBJECT_ID":"2018-047G","EPOCH":"2026-03-07T04:14:54.660192","MEAN_MOTION":14.4328454,"ECCENTRICITY":0.0002102,"INCLINATION":86.4504,"RA_OF_ASC_NODE":131.0253,"ARG_OF_PERICENTER":92.4269,"MEAN_ANOMALY":267.7173,"EPHEMERIS_TYPE":0,"CLASSIFICATION_TYPE":"U","NORAD_CAT_ID":43482,"ELEMENT_SET_NO":999,"REV_AT_EPOCH":41041,"BSTAR":0.00010408,"MEAN_MOTION_DOT":3.7e-6,"MEAN_MOTION_DDOT":0},{"OBJECT_NAME":"IRIDIUM 160","OBJECT_ID":"2018-061A","EPOCH":"2026-03-07T03:05:06.410688","MEAN_MOTION":14.34217781,"ECCENTRICITY":0.0002264,"INCLINATION":86.3916,"RA_OF_ASC_NODE":99.4876,"ARG_OF_PERICENTER":91.7681,"MEAN_ANOMALY":268.3774,"EPHEMERIS_TYPE":0,"CLASSIFICATION_TYPE":"U","NORAD_CAT_ID":43569,"ELEMENT_SET_NO":999,"REV_AT_EPOCH":39874,"BSTAR":-2.9696e-6,"MEAN_MOTION_DOT":1.1e-7,"MEAN_MOTION_DDOT":0},{"OBJECT_NAME":"IRIDIUM 166","OBJECT_ID":"2018-061B","EPOCH":"2026-03-07T03:41:38.378688","MEAN_MOTION":14.34217808,"ECCENTRICITY":0.0002129,"INCLINATION":86.3918,"RA_OF_ASC_NODE":99.4291,"ARG_OF_PERICENTER":96.9389,"MEAN_ANOMALY":263.2049,"EPHEMERIS_TYPE":0,"CLASSIFICATION_TYPE":"U","NORAD_CAT_ID":43570,"ELEMENT_SET_NO":999,"REV_AT_EPOCH":39877,"BSTAR":-4.5911e-7,"MEAN_MOTION_DOT":1.8e-7,"MEAN_MOTION_DDOT":0},{"OBJECT_NAME":"IRIDIUM 158","OBJECT_ID":"2018-061C","EPOCH":"2026-03-07T02:55:58.332288","MEAN_MOTION":14.34217847,"ECCENTRICITY":0.0002121,"INCLINATION":86.3919,"RA_OF_ASC_NODE":99.4527,"ARG_OF_PERICENTER":89.9962,"MEAN_ANOMALY":270.1477,"EPHEMERIS_TYPE":0,"CLASSIFICATION_TYPE":"U","NORAD_CAT_ID":43571,"ELEMENT_SET_NO":999,"REV_AT_EPOCH":39873,"BSTAR":7.3678e-6,"MEAN_MOTION_DOT":4.0e-7,"MEAN_MOTION_DDOT":0},{"OBJECT_NAME":"IRIDIUM 165","OBJECT_ID":"2018-061D","EPOCH":"2026-03-07T03:32:30.318432","MEAN_MOTION":14.3421838,"ECCENTRICITY":0.0002231,"INCLINATION":86.3918,"RA_OF_ASC_NODE":99.4858,"ARG_OF_PERICENTER":96.5836,"MEAN_ANOMALY":263.5613,"EPHEMERIS_TYPE":0,"CLASSIFICATION_TYPE":"U","NORAD_CAT_ID":43572,"ELEMENT_SET_NO":999,"REV_AT_EPOCH":39876,"BSTAR":1.6487e-5,"MEAN_MOTION_DOT":6.6e-7,"MEAN_MOTION_DDOT":0},{"OBJECT_NAME":"IRIDIUM 155","OBJECT_ID":"2018-061E","EPOCH":"2026-03-07T02:37:42.406176","MEAN_MOTION":14.3421765,"ECCENTRICITY":0.0001965,"INCLINATION":86.3916,"RA_OF_ASC_NODE":99.3761,"ARG_OF_PERICENTER":93.713,"MEAN_ANOMALY":266.429,"EPHEMERIS_TYPE":0,"CLASSIFICATION_TYPE":"U","NORAD_CAT_ID":43573,"ELEMENT_SET_NO":999,"REV_AT_EPOCH":39872,"BSTAR":-4.2657e-6,"MEAN_MOTION_DOT":8.0e-8,"MEAN_MOTION_DDOT":0},{"OBJECT_NAME":"IRIDIUM 154","OBJECT_ID":"2018-061F","EPOCH":"2026-03-07T03:50:46.786272","MEAN_MOTION":14.34219045,"ECCENTRICITY":0.0002211,"INCLINATION":86.3918,"RA_OF_ASC_NODE":99.4835,"ARG_OF_PERICENTER":97.9801,"MEAN_ANOMALY":262.1646,"EPHEMERIS_TYPE":0,"CLASSIFICATION_TYPE":"U","NORAD_CAT_ID":43574,"ELEMENT_SET_NO":999,"REV_AT_EPOCH":39878,"BSTAR":5.7666e-5,"MEAN_MOTION_DOT":1.81e-6,"MEAN_MOTION_DDOT":0},{"OBJECT_NAME":"IRIDIUM 163","OBJECT_ID":"2018-061G","EPOCH":"2026-03-07T03:23:22.342848","MEAN_MOTION":14.34218615,"ECCENTRICITY":0.0002213,"INCLINATION":86.3917,"RA_OF_ASC_NODE":99.4102,"ARG_OF_PERICENTER":91.5036,"MEAN_ANOMALY":268.6414,"EPHEMERIS_TYPE":0,"CLASSIFICATION_TYPE":"U","NORAD_CAT_ID":43575,"ELEMENT_SET_NO":999,"REV_AT_EPOCH":39875,"BSTAR":3.2608e-5,"MEAN_MOTION_DOT":1.11e-6,"MEAN_MOTION_DDOT":0},{"OBJECT_NAME":"IRIDIUM 156","OBJECT_ID":"2018-061H","EPOCH":"2026-03-07T04:27:18.353376","MEAN_MOTION":14.34217983,"ECCENTRICITY":0.0002028,"INCLINATION":86.3915,"RA_OF_ASC_NODE":99.3986,"ARG_OF_PERICENTER":93.8348,"MEAN_ANOMALY":266.308,"EPHEMERIS_TYPE":0,"CLASSIFICATION_TYPE":"U","NORAD_CAT_ID":43576,"ELEMENT_SET_NO":999,"REV_AT_EPOCH":39875,"BSTAR":1.4315e-6,"MEAN_MOTION_DOT":2.4e-7,"MEAN_MOTION_DDOT":0},{"OBJECT_NAME":"IRIDIUM 164","OBJECT_ID":"2018-061J","EPOCH":"2026-03-07T03:59:54.444768","MEAN_MOTION":14.34218206,"ECCENTRICITY":0.0002364,"INCLINATION":86.3918,"RA_OF_ASC_NODE":99.4457,"ARG_OF_PERICENTER":98.1497,"MEAN_ANOMALY":261.9966,"EPHEMERIS_TYPE":0,"CLASSIFICATION_TYPE":"U","NORAD_CAT_ID":43577,"ELEMENT_SET_NO":999,"REV_AT_EPOCH":39879,"BSTAR":4.9609e-5,"MEAN_MOTION_DOT":1.59e-6,"MEAN_MOTION_DDOT":0},{"OBJECT_NAME":"IRIDIUM 159","OBJECT_ID":"2018-061K","EPOCH":"2026-03-07T03:14:14.465760","MEAN_MOTION":14.34217676,"ECCENTRICITY":0.0002276,"INCLINATION":86.3916,"RA_OF_ASC_NODE":99.3973,"ARG_OF_PERICENTER":90.9031,"MEAN_ANOMALY":269.2425,"EPHEMERIS_TYPE":0,"CLASSIFICATION_TYPE":"U","NORAD_CAT_ID":43578,"ELEMENT_SET_NO":999,"REV_AT_EPOCH":39875,"BSTAR":-2.3901e-6,"MEAN_MOTION_DOT":1.3e-7,"MEAN_MOTION_DDOT":0},{"OBJECT_NAME":"IRIDIUM 180","OBJECT_ID":"2019-002A","EPOCH":"2026-03-07T03:13:30.988416","MEAN_MOTION":14.34217108,"ECCENTRICITY":0.0002177,"INCLINATION":86.3964,"RA_OF_ASC_NODE":36.2334,"ARG_OF_PERICENTER":85.4608,"MEAN_ANOMALY":274.6837,"EPHEMERIS_TYPE":0,"CLASSIFICATION_TYPE":"U","NORAD_CAT_ID":43922,"ELEMENT_SET_NO":999,"REV_AT_EPOCH":37436,"BSTAR":-1.9575e-5,"MEAN_MOTION_DOT":-3.5e-7,"MEAN_MOTION_DDOT":0},{"OBJECT_NAME":"IRIDIUM 176","OBJECT_ID":"2019-002B","EPOCH":"2026-03-06T22:27:12.518784","MEAN_MOTION":14.72251895,"ECCENTRICITY":0.0002433,"INCLINATION":86.6092,"RA_OF_ASC_NODE":36.2737,"ARG_OF_PERICENTER":89.2705,"MEAN_ANOMALY":270.8791,"EPHEMERIS_TYPE":0,"CLASSIFICATION_TYPE":"U","NORAD_CAT_ID":43923,"ELEMENT_SET_NO":999,"REV_AT_EPOCH":38420,"BSTAR":0.00019703,"MEAN_MOTION_DOT":1.267e-5,"MEAN_MOTION_DDOT":0},{"OBJECT_NAME":"IRIDIUM 168","OBJECT_ID":"2019-002C","EPOCH":"2026-03-06T23:43:26.779296","MEAN_MOTION":14.34213875,"ECCENTRICITY":0.0002191,"INCLINATION":86.3968,"RA_OF_ASC_NODE":36.3685,"ARG_OF_PERICENTER":86.3428,"MEAN_ANOMALY":273.8018,"EPHEMERIS_TYPE":0,"CLASSIFICATION_TYPE":"U","NORAD_CAT_ID":43924,"ELEMENT_SET_NO":999,"REV_AT_EPOCH":37432,"BSTAR":1.3708e-5,"MEAN_MOTION_DOT":5.8e-7,"MEAN_MOTION_DDOT":0}]
